NORAD_CAT_ID,OBJECT_NAME,OBJECT_TYPE,EPOCH,MEAN_MOTION,ECCENTRICITY,INCLINATION,RA_OF_ASC_NODE,ARG_OF_PERICENTER,MEAN_ANOMALY,BSTAR,MEAN_MOTION_DOT,MEAN_MOTION_DDOT,TLE_LINE0,TLE_LINE1,TLE_LINE2,SEMIMAJOR_AXIS,PERIOD,APOGEE,PERIGEE,DECAYED
52353.0,STARLINK-3807,PAYLOAD,2022-06-09 06:00:00,15.72715786,0.0002471,53.2174,236.5044,16.4341,75.2236,-0.0056628999999999,-0.0071625,0.0,0 STARLINK-3807,1 52353U 22045Y   22160.25001157 -.00716250  00000-0 -56629-2 0  9996,2 52353  53.2174 236.5044 0002471  16.4341  75.2236 15.72715786  8900,6729.276,91.561,352.80400000000014,349.478,0.0
52353.0,STARLINK-3807,PAYLOAD,2022-06-09 14:00:01,15.72206064,0.0002595,53.2175,234.8589,18.1708,161.5217,-0.0057912,-0.00716652,0.0,0 STARLINK-3807,1 52353U 22045Y   22160.58334491 -.00716652  00000-0 -57912-2 0  9994,2 52353  53.2175 234.8589 0002595  18.1708 161.5217 15.72206064  1308,6730.73,91.591,354.342,350.849,0.0
52353.0,STARLINK-3807,PAYLOAD,2022-06-09 22:00:00,15.7169985,0.0002311,53.2176,233.211,18.9122,248.2034,-0.0059775,-0.00723248,0.0,0 STARLINK-3807,1 52353U 22045Y   22160.91667824 -.00723248  00000-0 -59775-2 0  9998,2 52353  53.2176 233.2110 0002311  18.9122 248.2034 15.71699850  1304,6732.176,91.621,355.596,352.485,0.0
52353.0,STARLINK-3807,PAYLOAD,2022-06-10 08:00:01,15.71059231,0.0002658,53.2177,231.1548,14.0249,91.5091,-0.0060903,-0.00717711,0.0,0 STARLINK-3807,1 52353U 22045Y   22161.33334491 -.00717711  00000-0 -60903-2 0  9999,2 52353  53.2177 231.1548 0002658  14.0249  91.5091 15.71059231  9075,6734.005999999999,91.658,357.66,354.081,0.0
52353.0,STARLINK-3807,PAYLOAD,2022-06-10 14:00:01,15.70683169,0.00029,53.2176,229.9233,339.526,100.5958,-0.0062884,-0.007285,0.0,0 STARLINK-3807,1 52353U 22045Y   22161.58334491 -.00728500  00000-0 -62884-2 0  9994,2 52353  53.2176 229.9233 0002900 339.5260 100.5958 15.70683169  1301,6735.08,91.68,358.899,354.992,0.0
52353.0,STARLINK-3807,PAYLOAD,2022-06-10 22:00:00,15.70171498,0.000412,53.2175,228.2789,303.6049,222.104,-0.0064039,-0.00726645,0.0,0 STARLINK-3807,1 52353U 22045Y   22161.91667824 -.00726645  00000-0 -64039-2 0  9992,2 52353  53.2175 228.2789 0004120 303.6049 222.1040 15.70171498  1301,6736.543000000002,91.71,361.184,355.6330000000001,0.0
52353.0,STARLINK-3807,PAYLOAD,2022-06-11 14:00:01,15.69140604,0.0002786,53.2175,224.9992,294.6273,40.4153,-0.0064789,-0.00705537,0.0,0 STARLINK-3807,1 52353U 22045Y   22162.58334491 -.00705537  00000-0 -64789-2 0  9996,2 52353  53.2175 224.9992 0002786 294.6273  40.4153 15.69140604  9266,6739.494000000002,91.77,363.236,359.481,0.0
52353.0,STARLINK-3807,PAYLOAD,2022-06-11 22:00:00,15.6864161,0.0001217,53.2176,223.3585,301.0169,117.7699,-0.0068108999999999,-0.00724418,0.0,0 STARLINK-3807,1 52353U 22045Y   22162.91667824 -.00724418  00000-0 -68109-2 0  9991,2 52353  53.2176 223.3585 0001217 301.0169 117.7699 15.68641610  1305,6740.9230000000025,91.799,363.608,361.967,0.0
52353.0,STARLINK-3807,PAYLOAD,2022-06-12 14:00:01,15.67614138,0.0001534,53.2177,220.0862,45.8821,178.5613,-0.0069691999999999,-0.00711696,0.0,0 STARLINK-3807,1 52353U 22045Y   22163.58334491 -.00711696  00000-0 -69692-2 0  9998,2 52353  53.2177 220.0862 0001534  45.8821 178.5613 15.67614138  9424,6743.868,91.859,366.767,364.698,0.0
52353.0,STARLINK-3807,PAYLOAD,2022-06-12 22:00:00,15.67108281,0.0001167,53.2176,218.4492,62.5216,243.8298,-0.0071944,-0.00718914,0.0,0 STARLINK-3807,1 52353U 22045Y   22163.91667824 -.00718914  00000-0 -71944-2 0  9997,2 52353  53.2176 218.4492 0001167  62.5216 243.8298 15.67108281  1300,6745.319,91.889,367.971,366.397,0.0
52353.0,STARLINK-3807,PAYLOAD,2022-06-13 14:00:01,15.66083007,0.0001345,53.2174,215.1846,48.7256,59.6047,-0.0073933,-0.00709477,0.0,0 STARLINK-3807,1 52353U 22045Y   22164.58334491 -.00709477  00000-0 -73933-2 0  9996,2 52353  53.2174 215.1846 0001345  48.7256  59.6047 15.66083007  9583,6748.263000000001,91.949,371.035,369.22,0.0
52353.0,STARLINK-3807,PAYLOAD,2022-06-13 22:00:00,15.65576211,0.0001291,53.2175,213.5511,60.9032,127.4971,-0.0076062,-0.00714647,0.0,0 STARLINK-3807,1 52353U 22045Y   22164.91667824 -.00714647  00000-0 -76062-2 0  9993,2 52353  53.2175 213.5511 0001291  60.9032 127.4971 15.65576211  1308,6749.719,91.979,372.455,370.713,0.0
52353.0,STARLINK-3807,PAYLOAD,2022-06-14 14:00:01,15.64555996,0.0001291,53.2175,210.294,48.7949,297.9055,-0.0079106,-0.00713522,0.0,0 STARLINK-3807,1 52353U 22045Y   22165.58334491 -.00713522  00000-0 -79106-2 0  9991,2 52353  53.2175 210.2940 0001291  48.7949 297.9055 15.64555996  9736,6752.653,92.039,375.39,373.646,0.0
52353.0,STARLINK-3807,PAYLOAD,2022-06-14 22:00:00,15.6404583,0.0001274999999999,53.2176,208.6642,46.3507,18.5829,-0.0080772999999999,-0.00713851,0.0,0 STARLINK-3807,1 52353U 22045Y   22165.91667824 -.00713851  00000-0 -80773-2 0  9994,2 52353  53.2176 208.6642 0001275  46.3507  18.5829 15.64045830  1305,6754.121,92.069,376.847,375.125,0.0
52353.0,STARLINK-3807,PAYLOAD,2022-06-15 14:00:01,15.63023877,0.0001303,53.2173,205.4144,61.827,157.7305,-0.0083542,-0.00709417,0.0,0 STARLINK-3807,1 52353U 22045Y   22166.58334491 -.00709417  00000-0 -83542-2 0  9999,2 52353  53.2173 205.4144 0001303  61.8270 157.7305 15.63023877  9898,6757.065,92.129,379.81,378.05,0.0
52353.0,STARLINK-3807,PAYLOAD,2022-06-15 22:00:00,15.62516116,0.0001284999999999,53.2174,203.7885,52.2652,243.6862,-0.0085812,-0.00713869,0.0,0 STARLINK-3807,1 52353U 22045Y   22166.91667824 -.00713869  00000-0 -85812-2 0  9993,2 52353  53.2174 203.7885 0001285  52.2652 243.6862 15.62516116  1302,6758.529,92.159,381.262,379.525,0.0
52353.0,STARLINK-3807,PAYLOAD,2022-06-16 02:00:01,15.62262247,0.0001472,53.2174,202.9766,49.62600000000001,104.2915,-0.0086796,-0.00714848,0.0,0 STARLINK-3807,1 52353U 22045Y   22167.08334491 -.00714848  00000-0 -86796-2 0  9993,2 52353  53.2174 202.9766 0001472  49.6260 104.2915 15.62262247  1308,6759.261,92.174,382.121,380.131,0.0
52353.0,STARLINK-3807,PAYLOAD,2022-06-19 14:00:01,15.5690812,0.000115,53.2172,186.0077,57.3715,318.4587,-0.010648,-0.00714099,0.0,0 STARLINK-3807,1 52353U 22045Y   22170.58334491 -.00714099  00000-0 -10648-1 0  9992,2 52353  53.2172 186.0077 0001150  57.3715 318.4587 15.56908120  1301,6774.749,92.491,397.393,395.835,0.0
52353.0,STARLINK-3807,PAYLOAD,2022-06-19 18:33:19,15.56604574,0.0001710999999999,53.2309,185.0091,89.0304,271.1874,0.0,-4.92e-06,0.0,0 STARLINK-3807,1 52353U 22045Y   22170.77314038 -.00000492  00000-0  00000+0 0  9991,2 52353  53.2309 185.0091 0001711  89.0304 271.1874 15.56604574 10554,6775.629,92.509,398.654,396.335,0.0
52353.0,STARLINK-3807,PAYLOAD,2022-06-19 20:00:01,15.565243,0.0001308,53.2176,184.799,47.4083,290.2611,-0.01079,-0.00713377,0.0,0 STARLINK-3807,1 52353U 22045Y   22170.83334491 -.00713377  00000-0 -10790-1 0  9996,2 52353  53.2176 184.7990 0001308  47.4083 290.2611 15.56524300 10564,6775.861999999999,92.514,398.614,396.841,0.0
52353.0,STARLINK-3807,PAYLOAD,2022-06-20 06:00:00,15.55885556,0.0001603,53.2174,182.79,44.8508,108.4477,-0.01101,-0.00711032,0.0,0 STARLINK-3807,1 52353U 22045Y   22171.25001157 -.00711032  00000-0 -11010-1 0  9995,2 52353  53.2174 182.7900 0001603  44.8508 108.4477 15.55885556 10621,6777.717,92.552,400.668,398.495,0.0
52353.0,STARLINK-3807,PAYLOAD,2022-06-20 14:00:01,15.55379037,0.0001413,53.2171,181.1834,56.8361,164.2752,-0.011314,-0.00716494,0.0,0 STARLINK-3807,1 52353U 22045Y   22171.58334491 -.00716494  00000-0 -11314-1 0  9995,2 52353  53.2171 181.1834 0001413  56.8361 164.2752 15.55379037  1309,6779.188,92.582,402.011,400.095,0.0
52353.0,STARLINK-3807,PAYLOAD,2022-06-20 22:00:00,15.54865792,0.0001496,53.2174,179.5762,44.1104,244.2046,-0.011442,-0.00711429,0.0,0 STARLINK-3807,1 52353U 22045Y   22171.91667824 -.00711429  00000-0 -11442-1 0  9996,2 52353  53.2174 179.5762 0001496  44.1104 244.2046 15.54865792  1301,6780.68,92.612,403.559,401.53,0.0
52353.0,STARLINK-3807,PAYLOAD,2022-06-21 06:00:00,15.54357569,0.0001678,53.2175,177.9736,33.0569,321.8447,-0.011697,-0.00713612,0.0,0 STARLINK-3807,1 52353U 22045Y   22172.25001157 -.00713612  00000-0 -11697-1 0  9993,2 52353  53.2175 177.9736 0001678  33.0569 321.8447 15.54357569 10775,6782.158,92.643,405.161,402.885,0.0
52353.0,STARLINK-3807,PAYLOAD,2022-06-21 14:00:01,15.53847781,0.0001283,53.2171,176.3707,49.6671,11.2101,-0.011912,-0.00713199,0.0,0 STARLINK-3807,1 52353U 22045Y   22172.58334491 -.00713199  00000-0 -11912-1 0  9999,2 52353  53.2171 176.3707 0001283  49.6671  11.2101 15.53847781  1306,6783.641,92.673,406.376,404.636,0.0
52353.0,STARLINK-3807,PAYLOAD,2022-06-21 22:00:00,15.53337622,0.000155,53.2172,174.7671,43.5338,82.7078,-0.01216,-0.00714509,0.0,0 STARLINK-3807,1 52353U 22045Y   22172.91667824 -.00714509  00000-0 -12160-1 0  9997,2 52353  53.2172 174.7671 0001550  43.5338  82.7078 15.53337622  1303,6785.126,92.704,408.043,405.94,0.0
52353.0,STARLINK-3807,PAYLOAD,2022-06-22 06:00:00,15.52825675,0.000166,53.2172,173.1682,45.8493,145.142,-0.012312,-0.0071045,0.0,0 STARLINK-3807,1 52353U 22045Y   22173.25001157 -.00710450  00000-0 -12312-1 0  9996,2 52353  53.2172 173.1682 0001660  45.8493 145.1420 15.52825675 10930,6786.6169999999975,92.734,409.609,407.356,0.0
52353.0,STARLINK-3807,PAYLOAD,2022-06-22 14:00:01,15.52319429,0.0001377,53.2172,171.5687,56.7219,198.4057,-0.012658,-0.00716493,0.0,0 STARLINK-3807,1 52353U 22045Y   22173.58334491 -.00716493  00000-0 -12658-1 0  9998,2 52353  53.2172 171.5687 0001377  56.7219 198.4057 15.52319429  1302,6788.093000000003,92.764,410.893,409.023,0.0
52353.0,STARLINK-3807,PAYLOAD,2022-06-22 22:00:00,15.51805428,0.000136,53.2174,169.9689,49.1865,269.4682,-0.012771,-0.00710143,0.0,0 STARLINK-3807,1 52353U 22045Y   22173.91667824 -.00710143  00000-0 -12771-1 0  9996,2 52353  53.2174 169.9689 0001360  49.1865 269.4682 15.51805428  1303,6789.592,92.795,412.38,410.533,0.0
